TIANMU-1 20             
1 58661U 23208B   26166.56201501  .00006528  00000+0  20887-3 0  9990
2 58661  97.4451 283.4866 0006142 340.6104  19.4903 15.32743672137171
TIANMU-1 21             
1 58662U 23208C   26166.61798922  .00008079  00000+0  23983-3 0  9998
2 58662  97.4510 286.2168 0006059 330.6382  29.4520 15.35053362137324
TIANMU-1 22             
1 58663U 23208D   26166.56952449  .00006256  00000+0  21122-3 0  9997
2 58663  97.4504 282.7979 0003372  10.0059 350.1248 15.31038497137086
TIANMU-1 15             
1 58700U 24004A   26166.59145966  .00004903  00000+0  18769-3 0  9995
2 58700  97.4662 352.7814 0006876   8.1090 352.0258 15.27009712135537
TIANMU-1 16             
1 58701U 24004B   26166.64595001  .00004877  00000+0  18831-3 0  9991
2 58701  97.4607 352.0745 0005999  13.0970 347.0424 15.26735292135548
TIANMU-1 17             
1 58702U 24004C   26166.63140243  .00004758  00000+0  18379-3 0  9990
2 58702  97.4635 352.5444 0005672  19.5285 340.6170 15.26734473135535
TIANMU-1 18             
1 58703U 24004D   26166.60805462  .00004638  00000+0  17788-3 0  9999
2 58703  97.4653 352.7755 0004199  20.5980 339.5428 15.26991827135531
INSAT-3DS               
1 58990U 24033A   26166.56050369 -.00000154  00000+0  00000+0 0  9997
2 58990   0.0432 117.8308 0000978 316.4664 113.4280  1.00271477 47058
METEOR-M2 4             
1 59051U 24039A   26166.63590823 -.00000008  00000+0  16148-4 0  9997
2 59051  98.7010 125.9534 0007198 165.3388 194.8000 14.22429373119049
GOES 19                 
1 60133U 24119A   26166.52927348 -.00000246  00000+0  00000+0 0  9992
2 60133   0.0056 235.8480 0000507 300.2390 203.0766  1.00274611  6940
MTG-S1                  
1 64723U 25143A   26166.32965113 -.00000028  00000+0  00000+0 0  9997
2 64723   0.6048 338.5512 0000988  10.7068  29.5609  1.00271862  3401
METOP-SGA1              
1 65159U 25172A   26166.59022893  .00000043  00000+0  39549-4 0  9992
2 65159  98.6645 226.3471 0000914  93.3561 266.7721 14.21509574 43569
FENGYUN 3H              
1 65815U 25219A   26166.56126594  .00000038  00000+0  38250-4 0  9995
2 65815  98.6768 107.3619 0001583  77.4055 282.7298 14.19920208 37153
