OBJECT_NAME,OBJECT_ID,EPOCH,MEAN_MOTION,ECCENTRICITY,INCLINATION,RA_OF_ASC_NODE,ARG_OF_PERICENTER,MEAN_ANOMALY,EPHEMERIS_TYPE,CLASSIFICATION_TYPE,NORAD_CAT_ID,ELEMENT_SET_NO,REV_AT_EPOCH,BSTAR,MEAN_MOTION_DOT,MEAN_MOTION_DDOT
TIANMU-1 20,2023-208B,2026-06-15T13:29:18.096864,15.32743672,.00061422,97.4451,283.4866,340.6104,19.4903,0,U,58661,999,13717,.20887443E-3,.6528E-4,0
TIANMU-1 21,2023-208C,2026-06-15T14:49:54.268608,15.35053362,.00060593,97.4510,286.2168,330.6382,29.4520,0,U,58662,999,13732,.23983149E-3,.8079E-4,0
TIANMU-1 22,2023-208D,2026-06-15T13:40:06.915936,15.31038497,.0003372,97.4504,282.7979,10.0059,350.1248,0,U,58663,999,13708,.21121949E-3,.6256E-4,0
TIANMU-1 15,2024-004A,2026-06-15T14:11:42.114624,15.27009712,.00068767,97.4662,352.7814,8.1090,352.0258,0,U,58700,999,13553,.1876945E-3,.4903E-4,0
TIANMU-1 16,2024-004B,2026-06-15T15:30:10.080864,15.26735292,.0005999,97.4607,352.0745,13.0970,347.0424,0,U,58701,999,13554,.18830948E-3,.4877E-4,0
TIANMU-1 17,2024-004C,2026-06-15T15:09:13.169952,15.26734473,.00056729,97.4635,352.5444,19.5285,340.6170,0,U,58702,999,13553,.18378976E-3,.4758E-4,0
TIANMU-1 18,2024-004D,2026-06-15T14:35:35.919168,15.26991827,.00041994,97.4653,352.7755,20.5980,339.5428,0,U,58703,999,13553,.17788112E-3,.4638E-4,0
INSAT-3DS,2024-033A,2026-06-15T13:27:07.518816,1.00271477,.00009786,0.0432,117.8308,316.4664,113.4280,0,U,58990,999,4705,0,-.154E-5,0
METEOR-M2 4,2024-039A,2026-06-15T15:15:42.471072,14.22429373,.00071989,98.7010,125.9534,165.3388,194.8000,0,U,59051,999,11904,.1614846E-4,-.8E-7,0
GOES 19,2024-119A,2026-06-15T12:42:09.228672,1.00274611,.0000507,0.0056,235.8480,300.2390,203.0766,0,U,60133,999,694,0,-.246E-5,0
MTG-S1,2025-143A,2026-06-15T07:54:41.857632,1.00271862,.0000988,0.6048,338.5512,10.7068,29.5609,0,U,64723,999,340,0,-.28E-6,0
METOP-SGA1,2025-172A,2026-06-15T14:09:55.779552,14.21509574,.00009143,98.6645,226.3471,93.3561,266.7721,0,U,65159,999,4356,.39548549E-4,.43E-6,0
FENGYUN 3H,2025-219A,2026-06-15T13:28:13.377216,14.19920208,.00015835,98.6768,107.3619,77.4055,282.7298,0,U,65815,999,3715,.38249628E-4,.38E-6,0
